NAVSTAR 48 (USA 151)    
1 26407U 00040A   26192.68408591  .00000102  00000+0  00000+0 0  9995
2 26407  54.8489 214.1892 0120552 302.6983  28.6662  2.00557796190430
NAVSTAR 51 (USA 166)    
1 27663U 03005A   26192.59094097  .00000103  00000+0  00000+0 0  9997
2 27663  54.8794 213.9991 0148212  53.1585 347.1351  2.00559189171802
NAVSTAR 54 (USA 177)    
1 28190U 04009A   26192.32612622 -.00000008  00000+0  00000+0 0  9994
2 28190  54.8097 274.7110 0117053 174.1471 187.5645  2.00553808163433
NAVSTAR 56 (USA 180)    
1 28474U 04045A   26192.69100969 -.00000085  00000+0  00000+0 0  9990
2 28474  55.1205 323.9096 0170117 316.9755  13.2448  2.00556859158916
NAVSTAR 57 (USA 183)    
1 28874U 05038A   26192.26867316 -.00000002  00000+0  00000+0 0  9995
2 28874  54.8586 272.2047 0128187 296.3630  53.4241  2.00563928152313
INMARSAT 4-F2           
1 28899U 05044A   26192.45183627 -.00000259  00000+0  00000+0 0  9990
2 28899   5.1250  43.6527 0002814  59.1174 132.7460  1.00271318 75761
NAVSTAR 58 (USA 190)    
1 29486U 06042A   26192.66875324  .00000030  00000+0  00000+0 0  9993
2 29486  54.7126 150.3670 0107076  55.0446 122.5056  2.00568391144883
NAVSTAR 60 (USA 196)    
1 32260U 07047A   26192.15767302 -.00000043  00000+0  00000+0 0  9998
2 32260  54.1126  79.0777 0167652  87.8982 274.0650  2.00554051137298
COSMOS 2433 [GLONASS-M] 
1 32275U 07052A   26191.84776337 -.00000062  00000+0  00000+0 0  9994
2 32275  65.5625 315.1381 0003393 203.0239 156.9646  2.13104163145568
COSMOS 2432 [GLONASS-M] 
1 32276U 07052B   26192.11350880 -.00000063  00000+0  00000+0 0  9998
2 32276  65.5781 315.2575 0007445 323.5436 184.1107  2.13103170145592
NAVSTAR 61 (USA 199)    
1 32384U 07062A   26192.44748571 -.00000003  00000+0  00000+0 0  9997
2 32384  55.0124 273.1765 0036031 167.2486 169.8682  2.00561362135999
COSMOS 2434 [GLONASS-M] 
1 32393U 07065A   26191.17907138  .00000121  00000+0  00000+0 0  9995
2 32393  64.3199 191.1401 0001266 327.2015 129.5148  2.13101374144265
COSMOS 2436 [GLONASS-M] 
1 32395U 07065C   26192.29089645  .00000110  00000+0  00000+0 0  9993
2 32395  64.3285 191.1750 0017324 353.6446   8.2320  2.13100061144248
NAVSTAR 64 (USA 206)    
1 35752U 09043A   26192.27430420 -.00000054  00000+0  00000+0 0  9998
2 35752  56.2254  26.5066 0053752  84.2123  73.5929  2.00552906123847
COSMOS 2456 [GLONASS-M] 
1 36111U 09070A   26190.63071153 -.00000025  00000+0  00000+0 0  9998
2 36111  65.0240  70.2070 0003794 337.6713 216.6373  2.13103839128908
COSMOS 2457 [GLONASS-M] 
1 36112U 09070B   26192.32266847 -.00000020  00000+0  00000+0 0  9998
2 36112  65.0106  69.9929 0003927 122.6877  56.8251  2.13101234128949
COSMOS 2460 [GLONASS-M] 
1 36402U 10007C   26191.61789161 -.00000061  00000+0  00000+0 0  9997
2 36402  65.4060 313.6745 0001799 138.8574 221.9345  2.13101688127230
BEIDOU-2 IGSO-1         
1 36828U 10036A   26188.62304566 -.00000058  00000+0  00000+0 0  9996
2 36828  54.3062 162.7756 0059224 225.1869 229.2421  1.00266308 58302
BEIDOU-2 G4             
1 37210U 10057A   26192.45739301 -.00000111  00000+0  00000+0 0  9990
2 37210   3.7032  68.7953 0005531 184.9795   0.1924  1.00270092 57532
BEIDOU-2 IGSO-2         
1 37256U 10068A   26191.65946204 -.00000197  00000+0  00000+0 0  9999
2 37256  47.5044 271.5406 0056906 213.4330 149.3314  1.00275347 57035
BEIDOU-2 IGSO-3         
1 37384U 11013A   26190.51857615 -.00000172  00000+0  00000+0 0  9996
2 37384  62.4382  39.9419 0035198 183.2390 357.7550  1.00261852 55882
GSAT-8                  
1 37605U 11022A   26192.50457315  .00000088  00000+0  00000+0 0  9991
2 37605   2.1912  81.5279 0002704 165.6723 278.9322  1.00271900 53464
BEIDOU-2 IGSO-4         
1 37763U 11038A   26191.89191873  .00000022  00000+0  00000+0 0  9996
2 37763  54.6042 165.4628 0160248 231.4112 307.2265  1.00280201 54880
GSAT0101 (GALILEO-PFM)  
1 37846U 11060A   26189.55204449 -.00000074  00000+0  00000+0 0  9995
2 37846  56.9869 341.1826 0002415  60.6868 299.3373  1.70475585 91484
GSAT0102 (GALILEO-FM2)  
1 37847U 11060B   26189.47708995 -.00000074  00000+0  00000+0 0  9992
2 37847  56.9877 341.1851 0002423  11.7755 347.8886  1.70475862 91489
COSMOS 2476 [GLONASS-M] 
1 37867U 11064A   26191.04288087 -.00000024  00000+0  00000+0 0  9994
2 37867  65.2823  72.1003 0022247 236.3907 182.4431  2.13103828114253
COSMOS 2477 [GLONASS-M] 
1 37868U 11064B   26192.37336347 -.00000020  00000+0  00000+0 0  9991
2 37868  65.2897  72.1351 0019225 237.1086 302.7003  2.13103049114279
COSMOS 2475 [GLONASS-M] 
1 37869U 11064C   26192.43169796 -.00000020  00000+0  00000+0 0  9991
2 37869  65.2964  72.1551 0024878 251.3420 288.2380  2.13101872114286
